COSMOS 2413 (712)       
1 28509U 04053B   15334.27920782  .00000024  00000-0  00000+0 0  9994
2 28509  63.1311 197.2174 0005475 161.1549 329.3914  2.13101834 85041
COSMOS 2419 (714)       
1 28915U 05050A   15335.00181505 -.00000006  00000-0  00000+0 0  9998
2 28915  65.2361  84.8927 0014206 353.9579 328.9048  2.13113050 77309
COSMOS 2425 (716)       
1 29670U 06062A   15335.25432516 -.00000033  00000-0  10000-3 0  9994
2 29670  65.7160 323.8393 0022091 338.0364 241.7768  2.13104915 69515
COSMOS 2426 (717)       
1 29671U 06062B   15335.15998159 -.00000034  00000-0  10000-3 0  9995
2 29671  65.7332 323.9199 0016694 175.1895 194.5611  2.13102943 69525
COSMOS 2424 (715)       
1 29672U 06062C   15334.66467716 -.00000036  00000-0  10000-3 0  9993
2 29672  65.7181 323.8686 0016206 174.3929 352.2936  2.13102163 69501
COSMOS 2433 (720)       
1 32275U 07052A   15334.71964588 -.00000006  00000-0  10000-3 0  9998
2 32275  65.2512  84.6687 0002404 219.4228 141.8837  2.13104984 63024
COSMOS 2432 (719)       
1 32276U 07052B   15334.40486683 -.00000006  00000-0  10000-3 0  9990
2 32276  65.2636  84.7418 0009991 339.7916  94.3329  2.13104222 63015
COSMOS 2434 (721)       
1 32393U 07065A   15335.44244677 -.00000033  00000-0  00000+0 0  9999
2 32393  65.3356 323.2506 0001871 155.9640 293.5754  2.13102781 61746
COSMOS 2436 (723)       
1 32395U 07065C   15335.43505807 -.00000033  00000-0  10000-3 0  9990
2 32395  65.3486 323.2898 0017285 343.7198 192.1289  2.13102760 61673
COSMOS 2443 (725)       
1 33379U 08046B   15335.40419225 -.00000009  00000-0  10000-3 0  9991
2 33379  65.1797  84.0815 0019442 181.6416 252.3792  2.13101457 55908
COSMOS 2456 (730)       
1 36111U 09070A   15334.74065598  .00000018  00000-0  00000+0 0  9996
2 36111  64.1868 202.8999 0003920 334.3597 105.3279  2.13103049 46396
COSMOS 2457 (733)       
1 36112U 09070B   15335.32083418  .00000017  00000-0  00000+0 0  9992
2 36112  64.1687 202.8114 0006885 154.7090 141.2832  2.13101690 46406
COSMOS 2458 (734)       
1 36113U 09070C   15334.66608895  .00000018  00000-0  10000-3 0  9997
2 36113  64.1739 202.8378 0002166  46.4705 154.4128  2.13101957 46393
COSMOS 2459 (731)       
1 36400U 10007A   15335.15155913 -.00000009  00000-0  10000-3 0  9992
2 36400  65.1585  83.8305 0026858 354.9869 204.8195  2.13102292 44756
COSMOS 2461 (735)       
1 36401U 10007B   15335.02762523 -.00000009  00000-0  10000-3 0  9990
2 36401  65.1511  83.8175 0006847  87.9372 287.3503  2.13102298 44754
COSMOS 2460 (732)       
1 36402U 10007C   15334.65561615 -.00000008  00000-0  10000-3 0  9997
2 36402  65.1409  83.8096 0001870 145.9701 346.0884  2.13101960 44744
COSMOS 2466 (738)       
1 37137U 10041A   15335.32099281 -.00000035  00000-0  10000-3 0  9991
2 37137  64.9196 323.4586 0019546 161.3961  58.6045  2.13102254 40834
COSMOS 2465 (737)       
1 37138U 10041B   15335.11177168 -.00000036  00000-0  00000+0 0  9996
2 37138  64.9365 323.5352 0034573 173.1130  68.8531  2.13102681 40827
COSMOS 2464 (736)       
1 37139U 10041C   15335.16841443 -.00000036  00000-0  00000+0 0  9996
2 37139  64.9385 323.5250 0021041   6.2494  53.7383  2.13102677 40836
COSMOS 2471 (701K)      
1 37372U 11009A   15334.40719065 -.00000008  00000-0  00000+0 0  9999
2 37372  65.1388  83.7684 0008034 224.6875 208.6918  2.13102924 37019
COSMOS 2474 (742)       
1 37829U 11055A   15334.61289809  .00000018  00000-0  00000+0 0  9998
2 37829  64.5112 203.2338 0006555 252.5705 311.4031  2.13101982 32384
COSMOS 2476 (744)       
1 37867U 11064A   15334.43689730  .00000019  00000-0  00000+0 0  9998
2 37867  64.4914 203.3265 0015467 247.3365 227.3607  2.13102091 31735
COSMOS 2477 (745)       
1 37868U 11064B   15335.38906656  .00000017  00000-0  00000+0 0  9991
2 37868  64.4995 203.3321 0013466 248.6302  55.9603  2.13102004 31702
COSMOS 2475 (743)       
1 37869U 11064C   15334.98295443  .00000017  00000-0  00000+0 0  9992
2 37869  64.5070 203.3320 0019191 278.5212  30.5341  2.13102277 31700
COSMOS 2478 (746)       
1 37938U 11071A   15334.61544213 -.00000008  00000-0  00000+0 0  9990
2 37938  65.1662  83.9751 0013693 237.1474 119.2635  2.13083212 31307
COSMOS 2485 (747)       
1 39155U 13019A   15334.64197134  .00000018  00000-0  00000+0 0  9996
2 39155  64.6603 203.2258 0015713 241.4310  75.7990  2.13102184 20207
COSMOS 2492 (754)       
1 39620U 14012A   15335.06761365 -.00000009  00000-0  10000-3 0  9993
2 39620  65.0301  83.8123 0013642 334.6958 341.6311  2.13103501 13162
COSMOS 2500 (755)       
1 40001U 14032A   15335.39814747 -.00000010  00000-0  00000+0 0  9996
2 40001  64.9703  83.8398 0007262 193.1924 240.8168  2.13102945 11391
COSMOS 2501 (702K)      
1 40315U 14075A   15335.16970598 -.00000037  00000-0  00000+0 0  9992
2 40315  64.7065 325.0434 0019110 239.6852 181.3481  2.13101394  7794
